COSMOS 2527 (756)       
1 43508U 18053A   24253.38200327  .00000031  00000+0  00000+0 0  9990
2 43508  65.2393  95.5056 0007212 216.4995 143.5258  2.13102372 48515
COSMOS 2529 (757)       
1 43687U 18086A   24253.94986733  .00000065  00000+0  00000+0 0  9995
2 43687  64.2986 214.4042 0011011 260.2301  99.6377  2.13102032 45532
COSMOS 2534 (758)       
1 44299U 19030A   24253.87401470  .00000066  00000+0  00000+0 0  9998
2 44299  64.3716 214.3683 0012894 280.1790 155.7427  2.13102108 41177
COSMOS 2544 (759)       
1 44850U 19088A   24253.79537226  .00000033  00000+0  00000+0 0  9998
2 44850  65.2265  95.3271 0011437 249.4732 110.4781  2.13102141 36942
COSMOS 2545 (760)       
1 45358U 20018A   24253.99218951 -.00000062  00000+0  00000+0 0  9993
2 45358  64.7076 335.0064 0010944 238.1098 121.8413  2.13102539 34910
COSMOS 2547 (705K)      
1 46805U 20075A   24253.24036169  .00000065  00000+0  00000+0 0  9993
2 46805  64.6009 214.0561 0008460 241.4872 118.4180  2.13102877 30147
COSMOS 2557 (706K)      
1 52984U 22075A   24253.40603120 -.00000066  00000+0  00000+0 0  9997
2 52984  64.6367 337.1490 0012441 273.3748  86.5385  2.13102344 16951
COSMOS 2559 (707K)      
1 54031U 22130A   24252.87993331 -.00000067  00000+0  00000+0 0  9991
2 54031  64.6086 337.2821 0007797 220.1464 139.8515  2.13101618 14910
COSMOS 2564 (761)       
1 54377U 22161A   24253.07040423  .00000065  00000+0  00000+0 0  9993
2 54377  64.7424 214.1816 0010877 224.0262 135.8770  2.13102165 13869
COSMOS 2569 (703K)      
1 57517U 23114A   24254.02576634  .00000035  00000+0  00000+0 0  9992
2 57517  64.9544  94.4380 0008820 295.5842  64.3979  2.13103948  8513
GPS BIIR-2  (PRN 13)    
1 24876U 97035A   24253.03921539  .00000007  00000+0  00000+0 0  9994
2 24876  55.6943 123.8533 0083918  53.8957 306.9670  2.00561111198996
GPS BIIR-4  (PRN 20)    
1 26360U 00025A   24253.42811031 -.00000040  00000+0  00000+0 0  9993
2 26360  54.7351  45.4524 0038970 216.5009 152.2356  2.00572933178324
GPS BIIR-5  (PRN 22)    
1 26407U 00040A   24253.38471635  .00000063  00000+0  00000+0 0  9993
2 26407  55.0371 240.8329 0143193 295.6245 241.1905  2.00561452176993
GPS BIIR-8  (PRN 16)    
1 27663U 03005A   24253.95866753  .00000067  00000+0  00000+0 0  9998
2 27663  55.0748 240.6211 0137537  47.6270 322.9181  2.00570036158376
GPS BIIR-9  (PRN 21)    
1 27704U 03010A   24253.67264948 -.00000088  00000+0  00000+0 0  9991
2 27704  55.0802 350.3834 0254328 329.5609  50.3353  2.00566105157160
GPS BIIR-11 (PRN 19)    
1 28190U 04009A   24253.97307053 -.00000018  00000+0  00000+0 0  9991
2 28190  55.3807 301.6512 0098856 152.5452  23.1226  2.00556825150036
GPS BIIR-13 (PRN 02)    
1 28474U 04045A   24253.88941344 -.00000087  00000+0  00000+0 0  9999
2 28474  55.4095 350.8224 0163402 294.4984 227.1011  2.00562154145486
GPS BIIRM-1 (PRN 17)    
1 28874U 05038A   24253.39417097 -.00000017  00000+0  00000+0 0  9998
2 28874  55.4268 299.1386 0137587 284.9567 215.0973  2.00549863138883
GPS BIIRM-2 (PRN 31)    
1 29486U 06042A   24253.57341824  .00000017  00000+0  00000+0 0  9997
2 29486  54.6772 176.9451 0104836  40.5565 130.0380  2.00550939131443
GPS BIIRM-3 (PRN 12)    
1 29601U 06052A   24253.25740020  .00000063  00000+0  00000+0 0  9994
2 29601  55.1080 239.6326 0084433  83.5958 277.3630  2.00572397130456
GPS BIIRM-4 (PRN 15)    
1 32260U 07047A   24253.56237858  .00000006  00000+0  00000+0 0  9995
2 32260  53.6509 106.7532 0158557  77.2752 284.5775  2.00560040123863
GPS BIIRM-5 (PRN 29)    
1 32384U 07062A   24253.39912392 -.00000019  00000+0  00000+0 0  9998
2 32384  55.5680 300.0129 0028262 156.8989 215.3033  2.00552208122569
GPS BIIRM-6 (PRN 07)    
1 32711U 08012A   24253.97719198  .00000014  00000+0  00000+0 0  9995
2 32711  54.4508 175.6711 0189366 239.9333 118.1991  2.00570493120817
GPS BIIRM-8 (PRN 05)    
1 35752U 09043A   24253.47255149 -.00000026  00000+0  00000+0 0  9998
2 35752  55.7452  52.9355 0056735  75.2169 295.0855  2.00564525110417
GPS BIIF-1  (PRN 25)    
1 36585U 10022A   24253.41143171  .00000062  00000+0  00000+0 0  9996
2 36585  54.4214 234.5990 0115309  62.0089  22.0484  2.00555799104642
GPS BIIF-3  (PRN 24)    
1 38833U 12053A   24253.16151331  .00000013  00000+0  00000+0 0  9995
2 38833  53.5180 170.0394 0156785  57.1804 304.3494  2.00559949 86486
GPS BIIF-4  (PRN 27)    
1 39166U 13023A   24253.52239408 -.00000009  00000+0  00000+0 0  9991
2 39166  55.0398 295.1800 0124115  44.9718 316.0921  2.00562603 82937
GPS BIIF-5  (PRN 30)    
1 39533U 14008A   24253.02041155  .00000018  00000+0  00000+0 0  9997
2 39533  53.6002 175.6546 0073223 221.1814 138.2861  2.00573332 76727
GPS BIIF-6  (PRN 06)    
1 39741U 14026A   24253.79984523 -.00000086  00000+0  00000+0 0  9993
2 39741  56.7027 356.5921 0031782 313.6558  46.1122  2.00562257 75586
GPS BIIF-7  (PRN 09)    
1 40105U 14045A   24253.89070708  .00000009  00000+0  00000+0 0  9996
2 40105  54.9665 114.2227 0028768 115.2684 245.1158  2.00572174 73132
GPS BIIF-8  (PRN 03)    
1 40294U 14068A   24253.76658638 -.00000018  00000+0  00000+0 0  9991
2 40294  56.4947  55.9440 0055170  65.2655 295.3333  2.00565303 72269
GPS BIIF-9  (PRN 26)    
1 40534U 15013A   24253.39767777  .00000059  00000+0  00000+0 0  9997
2 40534  53.3193 230.9072 0090563  30.3483 330.1611  2.00560530 68874
GPS BIIF-10 (PRN 08)    
1 40730U 15033A   24253.55951595 -.00000006  00000+0  00000+0 0  9991
2 40730  54.5223 293.6100 0095417  19.7315 340.6992  2.00562767 67045
GPS BIIF-11 (PRN 10)    
1 41019U 15062A   24253.61984593 -.00000020  00000+0  00000+0 0  9991
2 41019  56.4744  55.8037 0097999 224.5769 134.6568  2.00562724 64880
GPS BIIF-12 (PRN 32)    
1 41328U 16007A   24252.20521357  .00000007  00000+0  00000+0 0  9997
2 41328  55.1577 115.1512 0080302 238.5139 120.7873  2.00557844 62865
GPS BIII-1  (PRN 04)    
1 43873U 18109A   24253.63167296  .00000008  00000+0  00000+0 0  9996
2 43873  55.3278 117.6906 0030457 192.2946   8.6734  2.00559652 42074
GPS BIII-2  (PRN 18)    
1 44506U 19056A   24253.43295753 -.00000088  00000+0  00000+0 0  9999
2 44506  55.8355 356.7544 0046452 190.6634 132.3562  2.00572918 37114
GPS BIII-3  (PRN 23)    
1 45854U 20041A   24253.52141188 -.00000023  00000+0  00000+0 0  9993
2 45854  56.1951  54.1182 0047075 193.5096 128.3095  2.00571988 31082
GPS BIII-4  (PRN 14)    
1 46826U 20078A   24253.36182512  .00000061  00000+0  00000+0 0  9992
2 46826  54.1528 236.9883 0049304 198.9857 343.5391  2.00560494 28557
GPS BIII-5  (PRN 11)    
1 48859U 21054A   24253.49603676 -.00000088  00000+0  00000+0 0  9998
2 48859  55.3623 358.3648 0018089 220.1729 241.9601  2.00553243 23806
GPS BIII-6  (PRN 28)    
1 55268U 23009A   24251.59649917  .00000021  00000+0  00000+0 0  9995
2 55268  55.0856 173.9381 0001528  65.8222 149.4240  2.00558960 12259
SCD 1                   
1 22490U 93009B   24253.68457834  .00001514  00000+0  36720-3 0  9990
2 22490  24.9686 231.5166 0042576 148.5410  13.0403 14.45431838667590
TECHSAT 1B (GO-32)      
1 25397U 98043D   24253.90088034  .00000609  00000+0  28471-3 0  9997
2 25397  98.9312 221.9269 0000243 315.2501  44.8657 14.24116916359474
SCD 2                   
1 25504U 98060A   24253.98340350  .00001556  00000+0  38748-3 0  9996
2 25504  24.9948  89.6635 0016994 146.7130   7.5860 14.44909166367244
LANDSAT 7               
1 25682U 99020A   24254.22693584  .00002111  00000+0  44019-3 0  9994
2 25682  97.8845 276.9967 0001856  92.6931 336.1188 14.60916644351619
DLR-TUBSAT              
1 25757U 99029B   24253.85900780  .00000845  00000+0  22065-3 0  9992
2 25757  98.5956 219.6937 0014844 149.3532 210.8533 14.51995488339589
TERRA                   
1 25994U 99068A   24254.13836206  .00002359  00000+0  50040-3 0  9997
2 25994  98.0399 315.1092 0003329  97.9683 291.7711 14.60039363315562
MAROC-TUBSAT            
1 27004U 01056D   24253.90398635  .00000049  00000+0  10810-3 0  9999
2 27004  99.7458  49.3742 0019777 358.9012 126.1444 13.70215141137812
AQUA                    
1 27424U 02022A   24254.17433053  .00004790  00000+0  10113-2 0  9995
2 27424  98.3364 203.9123 0001373 111.4023 306.7179 14.59830519189118
IRS-P6 (RESOURCESAT-1)  
1 28051U 03046A   24254.12635382  .00001553  00000+0  53939-3 0  9991
2 28051  98.2857 308.1386 0065890 114.8933 274.0024 14.35612954 87984
SHIYAN 1 (SY-1)         
1 28220U 04012A   24254.12659766  .00022456  00000+0  12361-2 0  9993
2 28220  97.9596 285.5804 0010647 103.2466 256.9952 15.14006595113013
AURA                    
1 28376U 04026A   24254.14805400  .00004840  00000+0  10390-2 0  9997
2 28376  98.2554 198.4339 0001953 114.0810 246.0594 14.59054345 72101
IRS-P5 (CARTOSAT-1)     
1 28649U 05017A   24254.18563863  .00005978  00000+0  66282-3 0  9994
2 28649  97.6066 294.1314 0002464  74.8995 285.2494 14.87620025 47861
SINAH 1                 
1 28893U 05043D   24253.94364660  .00002486  00000+0  49365-3 0  9995
2 28893  98.2039  17.2038 0015612 134.7781 225.4694 14.62982294  6139
EROS B                  
1 29079U 06014A   24254.16840530  .00046839  00000+0  22148-2 0  9990
2 29079  97.3374   5.6877 0007941 353.0378   7.0745 15.19198563 20424
RESURS-DK 1             
1 29228U 06021A   24253.94531912  .00008250  00000+0  53985-3 0  9999
2 29228  69.9353 204.2452 0007687 252.8724 107.1598 15.08068047  5103
ARIRANG-2 (KOMPSAT-2)   
1 29268U 06031A   24254.17731831  .00001525  00000+0  30102-3 0  9996
2 29268  97.8568  98.5479 0013904 323.7492 175.7451 14.63744447967175
LAPAN-TUBSAT            
1 29709U 07001A   24254.15993025  .00003159  00000+0  38254-3 0  9998
2 29709  98.0782 230.3695 0013860 121.3154 238.9419 14.84317886955416
HAIYANG-1B              
1 31113U 07010A   24253.93227691  .00000629  00000+0  25630-3 0  9997
2 31113  98.2998 252.1106 0012757 319.2416  40.7812 14.30681120908354
